[{"OBJECT_NAME":"STARLINK-2400","OBJECT_ID":"2021-018AG","EPOCH":"2026-03-09T17:52:01.803648","MEAN_MOTION":15.30197918,"ECCENTRICITY":0.00013621,"INCLINATION":53.1598,"RA_OF_ASC_NODE":242.8743,"ARG_OF_PERICENTER":66.0772,"MEAN_ANOMALY":294.0371,"EPHEMERIS_TYPE":0,"CLASSIFICATION_TYPE":"U","NORAD_CAT_ID":47817,"ELEMENT_SET_NO":999,"REV_AT_EPOCH":27672,"BSTAR":-2.8309068e-5,"MEAN_MOTION_DOT":-1.197e-5,"MEAN_MOTION_DDOT":0},{"OBJECT_NAME":"JILIN-1 GAOFEN 03D50","OBJECT_ID":"2022-167J","EPOCH":"2026-03-09T22:35:59.947584","MEAN_MOTION":15.32279726,"ECCENTRICITY":0.00065764,"INCLINATION":97.6731,"RA_OF_ASC_NODE":232.9458,"ARG_OF_PERICENTER":101.1473,"MEAN_ANOMALY":259.0507,"EPHEMERIS_TYPE":0,"CLASSIFICATION_TYPE":"U","NORAD_CAT_ID":54690,"ELEMENT_SET_NO":999,"REV_AT_EPOCH":18014,"BSTAR":0.00049467973,"MEAN_MOTION_DOT":0.00015359,"MEAN_MOTION_DDOT":0}]
